[{"OBJECT_ID":"1970-025SB","OBJECT_NAME":"THORAD AGENA D DEB","NORAD_CAT_ID":"42521","OBJECT_TYPE":"DEBRIS","PERIOD":"104.588","INCLINATION":"99.9346","ECCENTRICITY":"0.00145210","MEAN_MOTION":"13.76834368","TLE_LINE1":"1 42521U 70025SB  21270.80218485  .00000292  00000-0  34616-3 0  9992","TLE_LINE2":"2 42521  99.9346 219.4140 0014521 294.7298  65.2339 13.76834368394228"},{"OBJECT_ID":"1970-025SC","OBJECT_NAME":"THORAD AGENA D DEB","NORAD_CAT_ID":"42522","OBJECT_TYPE":"DEBRIS","PERIOD":"105.705","INCLINATION":"99.6231","ECCENTRICITY":"0.00314160","MEAN_MOTION":"13.62286744","TLE_LINE1":"1 42522U 70025SC  21271.21649688  .00000242  00000-0  36833-3 0  9990","TLE_LINE2":"2 42522  99.6231   9.2480 0031416  35.3564 354.8020 13.62286744390154"},{"OBJECT_ID":"1970-025SD","OBJECT_NAME":"THORAD AGENA D DEB","NORAD_CAT_ID":"42523","OBJECT_TYPE":"DEBRIS","PERIOD":"104.817","INCLINATION":"100.0696","ECCENTRICITY":"0.00269970","MEAN_MOTION":"13.73821362","TLE_LINE1":"1 42523U 70025SD  21271.25608889  .00000227  00000-0  29418-3 0  9997","TLE_LINE2":"2 42523 100.0696 283.6171 0026997 359.9109  59.1826 13.73821362393560"},{"OBJECT_ID":"1970-025SF","OBJECT_NAME":"THORAD AGENA D DEB","NORAD_CAT_ID":"42525","OBJECT_TYPE":"DEBRIS","PERIOD":"97.528","INCLINATION":"99.8860","ECCENTRICITY":"0.01441570","MEAN_MOTION":"14.76497082","TLE_LINE1":"1 42525U 70025SF  21270.91504195  .00002569  00000-0  32111-3 0  9991","TLE_LINE2":"2 42525  99.8860 330.8073 0144157 158.5556 202.1771 14.76497082417898"},{"OBJECT_ID":"1970-025SG","OBJECT_NAME":"THORAD AGENA D DEB","NORAD_CAT_ID":"42526","OBJECT_TYPE":"DEBRIS","PERIOD":"103.607","INCLINATION":"99.8879","ECCENTRICITY":"0.00906170","MEAN_MOTION":"13.89866277","TLE_LINE1":"1 42526U 70025SG  21272.33008194  .00000210  00000-0  20449-3 0  9990","TLE_LINE2":"2 42526  99.8879  89.6407 0090617   8.8115 111.1872 13.89866277114094"},{"OBJECT_ID":"1970-025SH","OBJECT_NAME":"THORAD AGENA D DEB","NORAD_CAT_ID":"42527","OBJECT_TYPE":"DEBRIS","PERIOD":"101.524","INCLINATION":"99.1749","ECCENTRICITY":"0.00334260","MEAN_MOTION":"14.18377322","TLE_LINE1":"1 42527U 70025SH  21272.39362460  .00001293  00000-0  64649-3 0  9998","TLE_LINE2":"2 42527  99.1749 125.9701 0033426 238.0465 121.7458 14.18377322863432"},{"OBJECT_ID":"1970-025SJ","OBJECT_NAME":"THORAD AGENA D DEB","NORAD_CAT_ID":"42528","OBJECT_TYPE":"DEBRIS","PERIOD":"100.726","INCLINATION":"99.7340","ECCENTRICITY":"0.00278460","MEAN_MOTION":"14.29619105","TLE_LINE1":"1 42528U 70025SJ  21271.35687572  .00002018  00000-0  80557-3 0  9990","TLE_LINE2":"2 42528  99.7340 305.8584 0027846 170.4641 189.7072 14.29619105361718"},{"OBJECT_ID":"1970-025SK","OBJECT_NAME":"THORAD AGENA D DEB","NORAD_CAT_ID":"42529","OBJECT_TYPE":"DEBRIS","PERIOD":"104.672","INCLINATION":"98.6872","ECCENTRICITY":"0.02153420","MEAN_MOTION":"13.75721889","TLE_LINE1":"1 42529U 70025SK  21269.53313317  .00000823  00000-0  75443-3 0  9991","TLE_LINE2":"2 42529  98.6872 169.9985 0215342 318.8902  39.6195 13.75721889380880"},{"OBJECT_ID":"1970-025SL","OBJECT_NAME":"THORAD AGENA D DEB","NORAD_CAT_ID":"42530","OBJECT_TYPE":"DEBRIS","PERIOD":"104.413","INCLINATION":"99.8280","ECCENTRICITY":"0.02346700","MEAN_MOTION":"13.79143145","TLE_LINE1":"1 42530U 70025SL  21271.58560332  .00010933  00000-0  87215-2 0  9994","TLE_LINE2":"2 42530  99.8280 208.2587 0234670 228.4441 129.6375 13.79143145823836"},{"OBJECT_ID":"1970-025SM","OBJECT_NAME":"THORAD AGENA D DEB","NORAD_CAT_ID":"42531","OBJECT_TYPE":"DEBRIS","PERIOD":"106.744","INCLINATION":"99.6339","ECCENTRICITY":"0.00527390","MEAN_MOTION":"13.49017190","TLE_LINE1":"1 42531U 70025SM  21267.62728118  .00000117  00000-0  25358-3 0  9997","TLE_LINE2":"2 42531  99.6339  41.0080 0052739 237.8499 135.5606 13.49017190385914"},{"OBJECT_ID":"1970-025SN","OBJECT_NAME":"THORAD AGENA D DEB","NORAD_CAT_ID":"42532","OBJECT_TYPE":"DEBRIS","PERIOD":"103.299","INCLINATION":"99.9429","ECCENTRICITY":"0.00011640","MEAN_MOTION":"13.94012211","TLE_LINE1":"1 42532U 70025SN  21271.66255406  .00000885  00000-0  70752-3 0  9992","TLE_LINE2":"2 42532  99.9429  43.6493 0001164 229.3458 130.7599 13.94012211 74812"},{"OBJECT_ID":"1970-025SP","OBJECT_NAME":"THORAD AGENA D DEB","NORAD_CAT_ID":"42533","OBJECT_TYPE":"DEBRIS","PERIOD":"104.259","INCLINATION":"99.7650","ECCENTRICITY":"0.01457760","MEAN_MOTION":"13.81177372","TLE_LINE1":"1 42533U 70025SP  21270.79277514  .00000496  00000-0  47320-3 0  9993","TLE_LINE2":"2 42533  99.7650 105.8811 0145776 192.2288 167.5310 13.81177372395472"},{"OBJECT_ID":"1970-025SQ","OBJECT_NAME":"THORAD AGENA D DEB","NORAD_CAT_ID":"42534","OBJECT_TYPE":"DEBRIS","PERIOD":"111.207","INCLINATION":"101.7610","ECCENTRICITY":"0.01935860","MEAN_MOTION":"12.94883855","TLE_LINE1":"1 42534U 70025SQ  21270.81113018  .00000227  00000-0  90601-3 0  9997","TLE_LINE2":"2 42534 101.7610 227.3864 0193586  79.1836 283.0983 12.94883855365217"},{"OBJECT_ID":"1970-025SR","OBJECT_NAME":"THORAD AGENA D DEB","NORAD_CAT_ID":"42535","OBJECT_TYPE":"DEBRIS","PERIOD":"104.907","INCLINATION":"99.8660","ECCENTRICITY":"0.00854420","MEAN_MOTION":"13.72650665","TLE_LINE1":"1 42535U 70025SR  21272.41801724  .00000937  00000-0  10450-2 0  9995","TLE_LINE2":"2 42535  99.8660 137.7441 0085442  35.5098 325.1695 13.72650665972997"},{"OBJECT_ID":"1970-025SS","OBJECT_NAME":"THORAD AGENA D DEB","NORAD_CAT_ID":"42536","OBJECT_TYPE":"DEBRIS","PERIOD":"103.208","INCLINATION":"99.5234","ECCENTRICITY":"0.00727710","MEAN_MOTION":"13.95245381","TLE_LINE1":"1 42536U 70025SS  21272.05251296  .00000996  00000-0  75475-3 0  9993","TLE_LINE2":"2 42536  99.5234 119.8451 0072771   5.0977 355.0908 13.95245381399120"},{"OBJECT_ID":"1970-025ST","OBJECT_NAME":"THORAD AGENA D DEB","NORAD_CAT_ID":"42537","OBJECT_TYPE":"DEBRIS","PERIOD":"104.417","INCLINATION":"100.0268","ECCENTRICITY":"0.00065820","MEAN_MOTION":"13.79085202","TLE_LINE1":"1 42537U 70025ST  21271.60889206  .00000375  00000-0  41466-3 0  9996","TLE_LINE2":"2 42537 100.0268  36.4610 0006582  23.0605 337.0838 13.79085202815088"},{"OBJECT_ID":"1970-025SU","OBJECT_NAME":"THORAD AGENA D DEB","NORAD_CAT_ID":"42538","OBJECT_TYPE":"DEBRIS","PERIOD":"106.344","INCLINATION":"100.0167","ECCENTRICITY":"0.00006030","MEAN_MOTION":"13.54091499","TLE_LINE1":"1 42538U 70025SU  21271.59008574  .00000018  00000-0  94738-4 0  9991","TLE_LINE2":"2 42538 100.0167 225.2830 0000603  13.6319 346.4833 13.54091499387984"},{"OBJECT_ID":"1970-025SV","OBJECT_NAME":"THORAD AGENA D DEB","NORAD_CAT_ID":"42539","OBJECT_TYPE":"DEBRIS","PERIOD":"102.431","INCLINATION":"99.0926","ECCENTRICITY":"0.00756230","MEAN_MOTION":"14.05825752","TLE_LINE1":"1 42539U 70025SV  21254.35990618  .00001080  00000-0  67042-3 0  9993","TLE_LINE2":"2 42539  99.0926 305.2421 0075623 142.1724 218.4792 14.05825752366198"},{"OBJECT_ID":"1970-025SX","OBJECT_NAME":"THORAD AGENA D DEB","NORAD_CAT_ID":"42541","OBJECT_TYPE":"DEBRIS","PERIOD":"105.034","INCLINATION":"100.1102","ECCENTRICITY":"0.00331680","MEAN_MOTION":"13.70979284","TLE_LINE1":"1 42541U 70025SX  21272.35559285  .00000231  00000-0  31323-3 0  9997","TLE_LINE2":"2 42541 100.1102  55.3612 0033168 276.7612 139.8409 13.70979284392780"},{"OBJECT_ID":"1970-025SY","OBJECT_NAME":"THORAD AGENA D DEB","NORAD_CAT_ID":"42542","OBJECT_TYPE":"DEBRIS","PERIOD":"102.473","INCLINATION":"99.0998","ECCENTRICITY":"0.01135300","MEAN_MOTION":"14.05250858","TLE_LINE1":"1 42542U 70025SY  21269.02621973  .00001274  00000-0  76919-3 0  9990","TLE_LINE2":"2 42542  99.0998 336.6174 0113530 129.5741 231.5520 14.05250858 13588"},{"OBJECT_ID":"1970-025SZ","OBJECT_NAME":"THORAD AGENA D DEB","NORAD_CAT_ID":"42543","OBJECT_TYPE":"DEBRIS","PERIOD":"108.626","INCLINATION":"99.9133","ECCENTRICITY":"0.01845450","MEAN_MOTION":"13.25652523","TLE_LINE1":"1 42543U 70025SZ  21271.43538119 -.00000072  00000-0 -64324-4 0  9993","TLE_LINE2":"2 42543  99.9133 345.6423 0184545 111.2543 250.8395 13.25652523379730"},{"OBJECT_ID":"1970-025TA","OBJECT_NAME":"THORAD AGENA D DEB","NORAD_CAT_ID":"42544","OBJECT_TYPE":"DEBRIS","PERIOD":"99.552","INCLINATION":"98.6593","ECCENTRICITY":"0.00754840","MEAN_MOTION":"14.46477830","TLE_LINE1":"1 42544U 70025TA  21269.94096710  .00001920  00000-0  52856-3 0  9990","TLE_LINE2":"2 42544  98.6593 323.5771 0075484 233.1187 126.3069 14.46477830365838"},{"OBJECT_ID":"1970-025TB","OBJECT_NAME":"THORAD AGENA D DEB","NORAD_CAT_ID":"42545","OBJECT_TYPE":"DEBRIS","PERIOD":"101.461","INCLINATION":"99.9290","ECCENTRICITY":"0.00071660","MEAN_MOTION":"14.19262498","TLE_LINE1":"1 42545U 70025TB  21268.16351988  .00000718  00000-0  36803-3 0  9993","TLE_LINE2":"2 42545  99.9290 327.0809 0007166 179.6538 180.4640 14.19262498818217"},{"OBJECT_ID":"1970-025TC","OBJECT_NAME":"THORAD AGENA D DEB","NORAD_CAT_ID":"42546","OBJECT_TYPE":"DEBRIS","PERIOD":"105.796","INCLINATION":"100.0575","ECCENTRICITY":"0.00553250","MEAN_MOTION":"13.61108795","TLE_LINE1":"1 42546U 70025TC  21271.07245004  .00000428  00000-0  62034-3 0  9992","TLE_LINE2":"2 42546 100.0575  38.4774 0055325 287.5688  71.9412 13.61108795389890"},{"OBJECT_ID":"1970-025TD","OBJECT_NAME":"THORAD AGENA D DEB","NORAD_CAT_ID":"42547","OBJECT_TYPE":"DEBRIS","PERIOD":"104.433","INCLINATION":"100.1616","ECCENTRICITY":"0.00126290","MEAN_MOTION":"13.78880258","TLE_LINE1":"1 42547U 70025TD  21272.06806476  .00000419  00000-0  46088-3 0  9990","TLE_LINE2":"2 42547 100.1616 131.2814 0012629 231.6016 128.3999 13.78880258980488"},{"OBJECT_ID":"1970-025TE","OBJECT_NAME":"THORAD AGENA D DEB","NORAD_CAT_ID":"42548","OBJECT_TYPE":"DEBRIS","PERIOD":"101.955","INCLINATION":"99.5673","ECCENTRICITY":"0.00647310","MEAN_MOTION":"14.12384104","TLE_LINE1":"1 42548U 70025TE  21270.58987283  .00001431  00000-0  78742-3 0  9999","TLE_LINE2":"2 42548  99.5673  22.2188 0064731   3.5126 356.6485 14.12384104403445"}]